[ {"name": "STARLINK-31097", "line1": "1 58718U 24002P   26192.77660095  .00000103  00000+0  15589-4 0  9992", "line2": "2 58718  53.1611  13.5571 0001077  87.7251 272.3873 15.30196861141014"}, {"name": "STARLINK-31051", "line1": "1 58719U 24002Q   26192.78187773  .00000559  00000+0  31005-4 0  9997", "line2": "2 58719  53.1612  13.5890 0000925  86.6756 273.4350 15.30197667141016"}, {"name": "STARLINK-31027", "line1": "1 58720U 24002R   26192.65610824  .00081294  00000+0  50432-3 0  9992", "line2": "2 58720  53.1402 340.3155 0007208  16.3208 343.8044 15.76316811141468"}, {"name": "STARLINK-30972", "line1": "1 58721U 24002S   26192.50689318  .00012974  00000+0  44881-3 0  9991", "line2": "2 58721  53.1598  14.7147 0000426 247.5244 112.5712 15.30242651140979"}, {"name": "STARLINK-31040", "line1": "1 58722U 24002T   26192.78289174  .00001355  00000+0  51307-4 0  9991", "line2": "2 58722  53.1616  12.1897 0003110 132.8487 227.2778 15.34369961141035"}, {"name": "STARLINK-31033", "line1": "1 58723U 24002U   26192.77556373 -.00001666  00000+0 -44175-4 0  9991", "line2": "2 58723  53.1605  13.5459 0001171  90.3547 269.7588 15.30181222141019"}, {"name": "STARLINK-30893", "line1": "1 58724U 24002V   26192.77237043  .00005703  00000+0  17985-3 0  9994", "line2": "2 58724  53.1601  12.1215 0001109  89.5650 270.5480 15.34391079141026"}, {"name": "STARLINK-30856", "line1": "1 58725U 24002W   26192.77132936  .00000068  00000+0  14397-4 0  9994", "line2": "2 58725  53.1609  13.5240 0000783 105.1559 254.9529 15.30194750141010"}, {"name": "STARLINK-31115", "line1": "1 58729U 24005B   26192.17032588  .00000023  00000+0  10341-4 0  9993", "line2": "2 58729  42.9974 242.7981 0000516 239.5681 120.5120 15.27571533139314"}, {"name": "STARLINK-31180", "line1": "1 58732U 24005E   26192.20229925  .00000937  00000+0  43568-4 0  9995", "line2": "2 58732  43.0021 242.2013 0001150 274.3949  85.6772 15.27575550139321"}, {"name": "STARLINK-31164", "line1": "1 58733U 24005F   26192.17787831 -.00006883  00000+0 -23963-3 0  9991", "line2": "2 58733  42.9738 241.9801 0015151 135.4836 224.7236 15.27598682139326"}, {"name": "STARLINK-31152", "line1": "1 58734U 24005G   26192.18173277  .00000347  00000+0  22154-4 0  9995", "line2": "2 58734  42.9928 242.0289 0003816 148.7259 211.3820 15.27577156139336"}, {"name": "STARLINK-31157", "line1": "1 58735U 24005H   26192.18559366  .00001288  00000+0  56333-4 0  9994", "line2": "2 58735  43.0019 242.0671 0001138 260.0760  99.9963 15.27564529139333"}, {"name": "STARLINK-31076", "line1": "1 58736U 24005J   26192.18944973  .00001696  00000+0  71170-4 0  9996", "line2": "2 58736  43.0058 242.0970 0001552 271.2623  88.8051 15.27561509139375"}, {"name": "STARLINK-31101", "line1": "1 58737U 24005K   26192.19972826  .00000125  00000+0  14091-4 0  9991", "line2": "2 58737  43.0034 242.1732 0001723 275.0479  85.0176 15.27575534139323"}, {"name": "STARLINK-31108", "line1": "1 58738U 24005L   26192.19330187  .00000575  00000+0  30437-4 0  9991", "line2": "2 58738  43.0022 242.1239 0001427 270.5331  89.5357 15.27574453139320"}, {"name": "STARLINK-31042", "line1": "1 58739U 24005M   26191.61511012 -.00000156  00000+0  38756-5 0  9995", "line2": "2 58739  43.0023 245.5169 0001402 235.6791 124.3928 15.27572552139247"}, {"name": "STARLINK-31159", "line1": "1 58740U 24005N   26192.43814248  .00000141  00000+0  14643-4 0  9996", "line2": "2 58740  43.0018 240.5179 0001375 275.6458  84.4237 15.27575316139466"}, {"name": "STARLINK-31148", "line1": "1 58741U 24005P   26192.18431117 -.00000380  00000+0 -43075-5 0  9998", "line2": "2 58741  43.0018 242.0690 0001126 261.5363  98.5361 15.27571642139333"}, {"name": "STARLINK-31151", "line1": "1 58742U 24005Q   26192.19201912  .00001285  00000+0  56202-4 0  9996", "line2": "2 58742  43.0020 242.1286 0001124 260.8322  99.2402 15.27574156139421"}, {"name": "STARLINK-31156", "line1": "1 58743U 24005R   26192.13049475  .00001859  00000+0  77028-4 0  9991", "line2": "2 58743  43.0023 242.5279 0001236 275.7050  84.3661 15.27587687139377"}, {"name": "STARLINK-31167", "line1": "1 58744U 24005S   26192.13966408  .00001073  00000+0  48539-4 0  9999", "line2": "2 58744  43.0021  97.1284 0001787 256.9966 103.0686 15.27573293141089"}, {"name": "STARLINK-31176", "line1": "1 58745U 24005T   26192.60235960  .00022096  00000+0  81265-3 0  9994", "line2": "2 58745  43.0006 240.0467 0000605 338.0933  21.9893 15.27475239139434"}, {"name": "STARLINK-31181", "line1": "1 58746U 24005U   26192.14971146 -.00015647  00000+0 -55689-3 0  9994", "line2": "2 58746  42.9590  90.3306 0016833  52.1833 308.0539 15.27620394141165"}, {"name": "STARLINK-31183", "line1": "1 58747U 24005V   26192.61003350 -.00000802  00000+0 -19600-4 0  9991", "line2": "2 58747  43.0004 240.0959 0002552 241.7294 118.3300 15.27577815139496"}, {"name": "STARLINK-31165", "line1": "1 58748U 24005W   26192.60618296  .00000558  00000+0  29818-4 0  9990", "line2": "2 58748  43.0014 240.0706 0001766 279.0627  81.0024 15.27577736139398"}, {"name": "STARLINK-31160", "line1": "1 58749U 24005X   26192.48953605 -.00000684  00000+0 -15345-4 0  9995", "line2": "2 58749  42.9962 240.8392 0001195 256.5204 103.5514 15.27573753139372"}, {"name": "STARLINK-31179", "line1": "1 58750U 24005Y   26192.48184312 -.00005073  00000+0 -17484-3 0  9990", "line2": "2 58750  43.0007 240.8540 0001468 253.8194 106.2496 15.27602988139374"}, {"name": "STARLINK-31127", "line1": "1 58765U 24011A   26192.29034216  .00000996  00000+0  45737-4 0  9999", "line2": "2 58765  53.1602 159.5971 0001589  94.9283 265.1899 15.30213427139196"}, {"name": "STARLINK-31114", "line1": "1 58766U 24011B   26192.36464943  .00000548  00000+0  30647-4 0  9999", "line2": "2 58766  53.1595 157.2452 0001821  62.9474 297.1713 15.30191229139233"}]