OBJECT_NAME,OBJECT_ID,EPOCH,MEAN_MOTION,ECCENTRICITY,INCLINATION,RA_OF_ASC_NODE,ARG_OF_PERICENTER,MEAN_ANOMALY,EPHEMERIS_TYPE,CLASSIFICATION_TYPE,NORAD_CAT_ID,ELEMENT_SET_NO,REV_AT_EPOCH,BSTAR,MEAN_MOTION_DOT,MEAN_MOTION_DDOT
STARLINK-31097,2024-002P,2026-07-11T18:38:18.322080,15.30196861,.00010779,53.1611,13.5571,87.7251,272.3873,0,U,58718,999,14101,.15589077E-4,.103E-5,0
STARLINK-31051,2024-002Q,2026-07-11T18:45:54.235872,15.30197667,.00009253,53.1612,13.5890,86.6756,273.4350,0,U,58719,999,14101,.31004632E-4,.559E-5,0
STARLINK-31027,2024-002R,2026-07-11T15:44:47.751936,15.76316811,.00072089,53.1402,340.3155,16.3208,343.8044,0,U,58720,999,14146,.50432105E-3,.81294E-3,0
STARLINK-30972,2024-002S,2026-07-11T12:09:55.570752,15.30242651,.00004269,53.1598,14.7147,247.5244,112.5712,0,U,58721,999,14097,.44881199E-3,.12974E-3,0
STARLINK-31040,2024-002T,2026-07-11T18:47:21.846336,15.34369961,.00031101,53.1616,12.1897,132.8487,227.2778,0,U,58722,999,14103,.51307218E-4,.1355E-4,0
STARLINK-31033,2024-002U,2026-07-11T18:36:48.706272,15.30181222,.00011714,53.1605,13.5459,90.3547,269.7588,0,U,58723,999,14101,-.44174986E-4,-.1666E-4,0
STARLINK-30893,2024-002V,2026-07-11T18:32:12.805152,15.34391079,.00011096,53.1601,12.1215,89.5650,270.5480,0,U,58724,999,14102,.17985201E-3,.5703E-4,0
STARLINK-30856,2024-002W,2026-07-11T18:30:42.856704,15.30194750,.00007839,53.1609,13.5240,105.1559,254.9529,0,U,58725,999,14101,.14396882E-4,.68E-6,0
STARLINK-31115,2024-005B,2026-07-11T04:05:16.156032,15.27571533,.00005168,42.9974,242.7981,239.5681,120.5120,0,U,58729,999,13931,.10340506E-4,.23E-6,0
STARLINK-31180,2024-005E,2026-07-11T04:51:18.655200,15.27575550,.00011506,43.0021,242.2013,274.3949,85.6772,0,U,58732,999,13932,.4356757E-4,.937E-5,0
STARLINK-31164,2024-005F,2026-07-11T04:16:08.685984,15.27598682,.00151516,42.9738,241.9801,135.4836,224.7236,0,U,58733,999,13932,-.23963445E-3,-.6883E-4,0
STARLINK-31152,2024-005G,2026-07-11T04:21:41.711328,15.27577156,.00038165,42.9928,242.0289,148.7259,211.3820,0,U,58734,999,13933,.22153943E-4,.347E-5,0
STARLINK-31157,2024-005H,2026-07-11T04:27:15.292224,15.27564529,.00011385,43.0019,242.0671,260.0760,99.9963,0,U,58735,999,13933,.56333122E-4,.1288E-4,0
STARLINK-31076,2024-005J,2026-07-11T04:32:48.456672,15.27561509,.00015522,43.0058,242.0970,271.2623,88.8051,0,U,58736,999,13937,.71170303E-4,.1696E-4,0
STARLINK-31101,2024-005K,2026-07-11T04:47:36.521664,15.27575534,.00017231,43.0034,242.1732,275.0479,85.0176,0,U,58737,999,13932,.14090626E-4,.125E-5,0
STARLINK-31108,2024-005L,2026-07-11T04:38:21.281568,15.27574453,.00014277,43.0022,242.1239,270.5331,89.5357,0,U,58738,999,13932,.30436865E-4,.575E-5,0
STARLINK-31042,2024-005M,2026-07-10T14:45:45.514368,15.27572552,.00014026,43.0023,245.5169,235.6791,124.3928,0,U,58739,999,13924,.3875618E-5,-.156E-5,0
STARLINK-31159,2024-005N,2026-07-11T10:30:55.510272,15.27575316,.00013755,43.0018,240.5179,275.6458,84.4237,0,U,58740,999,13946,.14643447E-4,.141E-5,0
STARLINK-31148,2024-005P,2026-07-11T04:25:24.485088,15.27571642,.00011266,43.0018,242.0690,261.5363,98.5361,0,U,58741,999,13933,-.4307498E-5,-.38E-5,0
STARLINK-31151,2024-005Q,2026-07-11T04:36:30.451968,15.27574156,.00011242,43.0020,242.1286,260.8322,99.2402,0,U,58742,999,13942,.56201684E-4,.1285E-4,0
STARLINK-31156,2024-005R,2026-07-11T03:07:54.746400,15.27587687,.00012363,43.0023,242.5279,275.7050,84.3661,0,U,58743,999,13937,.77028406E-4,.1859E-4,0
STARLINK-31167,2024-005S,2026-07-11T03:21:06.976512,15.27573293,.00017871,43.0021,97.1284,256.9966,103.0686,0,U,58744,999,14108,.48538775E-4,.1073E-4,0
STARLINK-31176,2024-005T,2026-07-11T14:27:23.869440,15.27475239,.0000605,43.0006,240.0467,338.0933,21.9893,0,U,58745,999,13943,.81264845E-3,.22096E-3,0
STARLINK-31181,2024-005U,2026-07-11T03:35:35.070144,15.27620394,.00168335,42.9590,90.3306,52.1833,308.0539,0,U,58746,999,14116,-.55689379E-3,-.15647E-3,0
STARLINK-31183,2024-005V,2026-07-11T14:38:26.894400,15.27577815,.0002552,43.0004,240.0959,241.7294,118.3300,0,U,58747,999,13949,-.19599694E-4,-.802E-5,0
STARLINK-31165,2024-005W,2026-07-11T14:32:54.207744,15.27577736,.00017661,43.0014,240.0706,279.0627,81.0024,0,U,58748,999,13939,.29818034E-4,.558E-5,0
STARLINK-31160,2024-005X,2026-07-11T11:44:55.914720,15.27573753,.0001195,42.9962,240.8392,256.5204,103.5514,0,U,58749,999,13937,-.15345286E-4,-.684E-5,0
STARLINK-31179,2024-005Y,2026-07-11T11:33:51.245568,15.27602988,.00014688,43.0007,240.8540,253.8194,106.2496,0,U,58750,999,13937,-.17483753E-3,-.5073E-4,0
STARLINK-31127,2024-011A,2026-07-11T06:58:05.562624,15.30213427,.00015896,53.1602,159.5971,94.9283,265.1899,0,U,58765,999,13919,.4573709E-4,.996E-5,0
STARLINK-31114,2024-011B,2026-07-11T08:45:05.710752,15.30191229,.00018219,53.1595,157.2452,62.9474,297.1713,0,U,58766,999,13923,.3064745E-4,.548E-5,0
